{
    "links": {
        "self": "http://www.neowsapp.com/rest/v1/neo/3364640?api_key=iIulBulltgU6a56xZRHN4H3l9WmuAYTsLGpBGhQ2"
    },
    "id": "3364640",
    "neo_reference_id": "3364640",
    "name": "(2006 YH14)",
    "designation": "2006 YH14",
    "nasa_jpl_url": "http://ssd.jpl.nasa.gov/sbdb.cgi?sstr=3364640",
    "absolute_magnitude_h": 23.2,
    "estimated_diameter": {
        "kilometers": {
            "estimated_diameter_min": 0.0608912622,
            "estimated_diameter_max": 0.1361570015
        },
        "meters": {
            "estimated_diameter_min": 60.8912622106,
            "estimated_diameter_max": 136.1570015386
        },
        "miles": {
            "estimated_diameter_min": 0.0378360645,
            "estimated_diameter_max": 0.0846040122
        },
        "feet": {
            "estimated_diameter_min": 199.7744887109,
            "estimated_diameter_max": 446.7093369279
        }
    },
    "is_potentially_hazardous_asteroid": false,
    "close_approach_data": [
        {
            "close_approach_date": "2001-12-22",
            "close_approach_date_full": "2001-Dec-22 20:40",
            "epoch_date_close_approach": 1009053600000,
            "relative_velocity": {
                "kilometers_per_second": "13.4551008547",
                "kilometers_per_hour": "48438.3630770867",
                "miles_per_hour": "30097.715101982"
            },
            "miss_distance": {
                "astronomical": "0.3616342238",
                "lunar": "140.6757130582",
                "kilometers": "54099709.599583306",
                "miles": "33616000.7505133828"
            },
            "orbiting_body": "Earth"
        },
        {
            "close_approach_date": "2007-01-13",
            "close_approach_date_full": "2007-Jan-13 19:57",
            "epoch_date_close_approach": 1168718220000,
            "relative_velocity": {
                "kilometers_per_second": "6.4063318207",
                "kilometers_per_hour": "23062.7945545398",
                "miles_per_hour": "14330.3236497361"
            },
            "miss_distance": {
                "astronomical": "0.0989799191",
                "lunar": "38.5031885299",
                "kilometers": "14807185.070132317",
                "miles": "9200758.1577552946"
            },
            "orbiting_body": "Earth"
        },
        {
            "close_approach_date": "2012-02-07",
            "close_approach_date_full": "2012-Feb-07 13:16",
            "epoch_date_close_approach": 1328620560000,
            "relative_velocity": {
                "kilometers_per_second": "10.3156141392",
                "kilometers_per_hour": "37136.2109009933",
                "miles_per_hour": "23074.9972678977"
            },
            "miss_distance": {
                "astronomical": "0.265766154",
                "lunar": "103.383033906",
                "kilometers": "39758050.55649198",
                "miles": "24704507.052590124"
            },
            "orbiting_body": "Earth"
        },
        {
            "close_approach_date": "2112-12-31",
            "close_approach_date_full": "2112-Dec-31 06:02",
            "epoch_date_close_approach": 4512607320000,
            "relative_velocity": {
                "kilometers_per_second": "10.6952214894",
                "kilometers_per_hour": "38502.797361754",
                "miles_per_hour": "23924.1409495854"
            },
            "miss_distance": {
                "astronomical": "0.2628768178",
                "lunar": "102.2590821242",
                "kilometers": "39325812.015258086",
                "miles": "24435926.4773141468"
            },
            "orbiting_body": "Earth"
        },
        {
            "close_approach_date": "2123-02-16",
            "close_approach_date_full": "2123-Feb-16 11:33",
            "epoch_date_close_approach": 4832220780000,
            "relative_velocity": {
                "kilometers_per_second": "12.9723880258",
                "kilometers_per_hour": "46700.5968929873",
                "miles_per_hour": "29017.9347749787"
            },
            "miss_distance": {
                "astronomical": "0.3609683537",
                "lunar": "140.4166895893",
                "kilometers": "54000096.850926619",
                "miles": "33554104.2586765822"
            },
            "orbiting_body": "Earth"
        }
    ],
    "orbital_data": {
        "orbit_id": "11",
        "orbit_determination_date": "2017-04-06 09:07:16",
        "first_observation_date": "2006-12-27",
        "last_observation_date": "2007-02-21",
        "data_arc_in_days": 56,
        "observations_used": 31,
        "orbit_uncertainty": "6",
        "minimum_orbit_intersection": ".0897829",
        "jupiter_tisserand_invariant": "3.878",
        "epoch_osculation": "2459000.5",
        "eccentricity": ".4211836961829366",
        "semi_major_axis": "1.85357265913122",
        "inclination": "8.351571954502793",
        "ascending_node_longitude": "293.2294569750369",
        "orbital_period": "921.7493692925332",
        "perihelion_distance": "1.072878075414699",
        "perihelion_argument": "185.1390455911011",
        "aphelion_distance": "2.634267242847742",
        "perihelion_time": "2458723.703241069720",
        "mean_anomaly": "108.1062125286642",
        "mean_motion": ".3905616993004394",
        "equinox": "J2000",
        "orbit_class": {
            "orbit_class_type": "AMO",
            "orbit_class_description": "Near-Earth asteroid orbits similar to that of 1221 Amor",
            "orbit_class_range": "1.017 AU < q (perihelion) < 1.3 AU"
        }
    },
    "is_sentry_object": false
}